[
  {
    "OBJECT_NAME": "RESOURCESAT-2",
    "OBJECT_ID": "2011-015A",
    "EPOCH": "2025-06-14T19:54:56.569824",
    "MEAN_MOTION": 14.21574371,
    "ECCENTRICITY": 0.0005777,
    "INCLINATION": 98.8083,
    "RA_OF_ASC_NODE": 229.9449,
    "ARG_OF_PERICENTER": 184.5331,
    "MEAN_ANOMALY": 175.5794,
    "EPHEMERIS_TYPE": 0,
    "CLASSIFICATION_TYPE": "U",
    "NORAD_CAT_ID": 37387,
    "ELEMENT_SET_NO": 999,
    "REV_AT_EPOCH": 73451,
    "BSTAR": 7.125e-05,
    "MEAN_MOTION_DOT": 1.12e-06,
    "MEAN_MOTION_DDOT": 0
  },
  {
    "OBJECT_NAME": "HAIYANG-2A",
    "OBJECT_ID": "2011-043A",
    "EPOCH": "2025-06-14T21:00:22.562496",
    "MEAN_MOTION": 13.78817398,
    "ECCENTRICITY": 0.0001092,
    "INCLINATION": 99.3319,
    "RA_OF_ASC_NODE": 169.5844,
    "ARG_OF_PERICENTER": 134.4889,
    "MEAN_ANOMALY": 225.6352,
    "EPHEMERIS_TYPE": 0,
    "CLASSIFICATION_TYPE": "U",
    "NORAD_CAT_ID": 37781,
    "ELEMENT_SET_NO": 999,
    "REV_AT_EPOCH": 69631,
    "BSTAR": 3.8018e-05,
    "MEAN_MOTION_DOT": -5e-08,
    "MEAN_MOTION_DDOT": 0
  },
  {
    "OBJECT_NAME": "RASAT",
    "OBJECT_ID": "2011-044D",
    "EPOCH": "2025-06-14T20:09:35.409888",
    "MEAN_MOTION": 14.67595103,
    "ECCENTRICITY": 0.0019382,
    "INCLINATION": 98.0682,
    "RA_OF_ASC_NODE": 257.791,
    "ARG_OF_PERICENTER": 276.9809,
    "MEAN_ANOMALY": 185.3526,
    "EPHEMERIS_TYPE": 0,
    "CLASSIFICATION_TYPE": "U",
    "NORAD_CAT_ID": 37791,
    "ELEMENT_SET_NO": 999,
    "REV_AT_EPOCH": 73931,
    "BSTAR": 9.9821e-05,
    "MEAN_MOTION_DOT": 5.19e-06,
    "MEAN_MOTION_DDOT": 0
  },
  {
    "OBJECT_NAME": "SRMSAT",
    "OBJECT_ID": "2011-058D",
    "EPOCH": "2025-06-14T13:32:17.592864",
    "MEAN_MOTION": 14.11437854,
    "ECCENTRICITY": 0.0011969,
    "INCLINATION": 19.9707,
    "RA_OF_ASC_NODE": 124.384,
    "ARG_OF_PERICENTER": 119.4776,
    "MEAN_ANOMALY": 37.3149,
    "EPHEMERIS_TYPE": 0,
    "CLASSIFICATION_TYPE": "U",
    "NORAD_CAT_ID": 37841,
    "ELEMENT_SET_NO": 999,
    "REV_AT_EPOCH": 70581,
    "BSTAR": 7.8604e-05,
    "MEAN_MOTION_DOT": 4.09e-06,
    "MEAN_MOTION_DDOT": 0
  },
  {
    "OBJECT_NAME": "PLEIADES 1A",
    "OBJECT_ID": "2011-076F",
    "EPOCH": "2025-06-14T18:33:06.515712",
    "MEAN_MOTION": 14.58556703,
    "ECCENTRICITY": 0.0001321,
    "INCLINATION": 98.1982,
    "RA_OF_ASC_NODE": 241.1354,
    "ARG_OF_PERICENTER": 108.4095,
    "MEAN_ANOMALY": 358.4676,
    "EPHEMERIS_TYPE": 0,
    "CLASSIFICATION_TYPE": "U",
    "NORAD_CAT_ID": 38012,
    "ELEMENT_SET_NO": 999,
    "REV_AT_EPOCH": 71844,
    "BSTAR": 8.5395e-05,
    "MEAN_MOTION_DOT": 3.51e-06,
    "MEAN_MOTION_DDOT": 0
  },
  {
    "OBJECT_NAME": "ZIYUAN 1-02C (ZY 1-02C)",
    "OBJECT_ID": "2011-079A",
    "EPOCH": "2025-06-14T18:22:21.516384",
    "MEAN_MOTION": 14.37775142,
    "ECCENTRICITY": 0.0005763,
    "INCLINATION": 98.4531,
    "RA_OF_ASC_NODE": 234.9096,
    "ARG_OF_PERICENTER": 336.9652,
    "MEAN_ANOMALY": 130.8368,
    "EPHEMERIS_TYPE": 0,
    "CLASSIFICATION_TYPE": "U",
    "NORAD_CAT_ID": 38038,
    "ELEMENT_SET_NO": 999,
    "REV_AT_EPOCH": 70645,
    "BSTAR": 0.00015658,
    "MEAN_MOTION_DOT": 4.28e-06,
    "MEAN_MOTION_DDOT": 0
  },
  {
    "OBJECT_NAME": "ZIYUAN 3-1 (ZY 3-1)",
    "OBJECT_ID": "2012-001A",
    "EPOCH": "2025-06-14T18:06:41.748768",
    "MEAN_MOTION": 15.5301374,
    "ECCENTRICITY": 0.0001388,
    "INCLINATION": 97.1975,
    "RA_OF_ASC_NODE": 230.3812,
    "ARG_OF_PERICENTER": 246.8073,
    "MEAN_ANOMALY": 113.3034,
    "EPHEMERIS_TYPE": 0,
    "CLASSIFICATION_TYPE": "U",
    "NORAD_CAT_ID": 38046,
    "ELEMENT_SET_NO": 999,
    "REV_AT_EPOCH": 74683,
    "BSTAR": 0.00027911,
    "MEAN_MOTION_DOT": 0.00017329,
    "MEAN_MOTION_DDOT": 0
  },
  {
    "OBJECT_NAME": "ARIRANG-3 (KOMPSAT-3)",
    "OBJECT_ID": "2012-025B",
    "EPOCH": "2025-06-14T20:50:38.551200",
    "MEAN_MOTION": 14.61427914,
    "ECCENTRICITY": 0.0006185,
    "INCLINATION": 98.3065,
    "RA_OF_ASC_NODE": 119.449,
    "ARG_OF_PERICENTER": 157.6624,
    "MEAN_ANOMALY": 202.4847,
    "EPHEMERIS_TYPE": 0,
    "CLASSIFICATION_TYPE": "U",
    "NORAD_CAT_ID": 38338,
    "ELEMENT_SET_NO": 999,
    "REV_AT_EPOCH": 69777,
    "BSTAR": 9.9284e-05,
    "MEAN_MOTION_DOT": 4.43e-06,
    "MEAN_MOTION_DDOT": 0
  },
  {
    "OBJECT_NAME": "EXACTVIEW-1 (ADS-1B)",
    "OBJECT_ID": "2012-039C",
    "EPOCH": "2025-06-14T13:42:07.389504",
    "MEAN_MOTION": 14.24819267,
    "ECCENTRICITY": 0.0011551,
    "INCLINATION": 98.9536,
    "RA_OF_ASC_NODE": 270.3014,
    "ARG_OF_PERICENTER": 146.74,
    "MEAN_ANOMALY": 213.4506,
    "EPHEMERIS_TYPE": 0,
    "CLASSIFICATION_TYPE": "U",
    "NORAD_CAT_ID": 38709,
    "ELEMENT_SET_NO": 999,
    "REV_AT_EPOCH": 67035,
    "BSTAR": 8.0887e-05,
    "MEAN_MOTION_DOT": 1.43e-06,
    "MEAN_MOTION_DDOT": 0
  },
  {
    "OBJECT_NAME": "SPOT 6",
    "OBJECT_ID": "2012-047A",
    "EPOCH": "2025-06-14T20:06:04.050432",
    "MEAN_MOTION": 14.585638,
    "ECCENTRICITY": 0.0001285,
    "INCLINATION": 98.1772,
    "RA_OF_ASC_NODE": 233.7012,
    "ARG_OF_PERICENTER": 107.785,
    "MEAN_ANOMALY": 252.3489,
    "EPHEMERIS_TYPE": 0,
    "CLASSIFICATION_TYPE": "U",
    "NORAD_CAT_ID": 38755,
    "ELEMENT_SET_NO": 999,
    "REV_AT_EPOCH": 67953,
    "BSTAR": 8.6999e-05,
    "MEAN_MOTION_DOT": 3.59e-06,
    "MEAN_MOTION_DDOT": 0
  },
  {
    "OBJECT_NAME": "PLEIADES 1B",
    "OBJECT_ID": "2012-068A",
    "EPOCH": "2025-06-14T20:31:31.866816",
    "MEAN_MOTION": 14.58550189,
    "ECCENTRICITY": 0.000139,
    "INCLINATION": 98.1954,
    "RA_OF_ASC_NODE": 241.1612,
    "ARG_OF_PERICENTER": 99.7292,
    "MEAN_ANOMALY": 260.4065,
    "EPHEMERIS_TYPE": 0,
    "CLASSIFICATION_TYPE": "U",
    "NORAD_CAT_ID": 39019,
    "ELEMENT_SET_NO": 999,
    "REV_AT_EPOCH": 66730,
    "BSTAR": 8.8486e-05,
    "MEAN_MOTION_DOT": 3.66e-06,
    "MEAN_MOTION_DDOT": 0
  },
  {
    "OBJECT_NAME": "GOKTURK 2",
    "OBJECT_ID": "2012-073A",
    "EPOCH": "2025-06-14T21:01:32.708928",
    "MEAN_MOTION": 14.75009553,
    "ECCENTRICITY": 0.0002162,
    "INCLINATION": 97.7099,
    "RA_OF_ASC_NODE": 16.2544,
    "ARG_OF_PERICENTER": 89.213,
    "MEAN_ANOMALY": 270.9327,
    "EPHEMERIS_TYPE": 0,
    "CLASSIFICATION_TYPE": "U",
    "NORAD_CAT_ID": 39030,
    "ELEMENT_SET_NO": 999,
    "REV_AT_EPOCH": 67038,
    "BSTAR": 7.7686e-05,
    "MEAN_MOTION_DOT": 4.75e-06,
    "MEAN_MOTION_DDOT": 0
  },
  {
    "OBJECT_NAME": "LANDSAT 8",
    "OBJECT_ID": "2013-008A",
    "EPOCH": "2025-06-14T20:22:39.535680",
    "MEAN_MOTION": 14.57098056,
    "ECCENTRICITY": 0.0001453,
    "INCLINATION": 98.2255,
    "RA_OF_ASC_NODE": 236.3612,
    "ARG_OF_PERICENTER": 92.778,
    "MEAN_ANOMALY": 267.3584,
    "EPHEMERIS_TYPE": 0,
    "CLASSIFICATION_TYPE": "U",
    "NORAD_CAT_ID": 39084,
    "ELEMENT_SET_NO": 999,
    "REV_AT_EPOCH": 65622,
    "BSTAR": 9.0182e-05,
    "MEAN_MOTION_DOT": 3.61e-06,
    "MEAN_MOTION_DDOT": 0
  },
  {
    "OBJECT_NAME": "SARAL",
    "OBJECT_ID": "2013-009A",
    "EPOCH": "2025-06-14T13:39:12.970368",
    "MEAN_MOTION": 14.32684001,
    "ECCENTRICITY": 9.38e-05,
    "INCLINATION": 98.5532,
    "RA_OF_ASC_NODE": 351.8466,
    "ARG_OF_PERICENTER": 327.3418,
    "MEAN_ANOMALY": 32.7707,
    "EPHEMERIS_TYPE": 0,
    "CLASSIFICATION_TYPE": "U",
    "NORAD_CAT_ID": 39086,
    "ELEMENT_SET_NO": 999,
    "REV_AT_EPOCH": 64296,
    "BSTAR": 4.1381e-05,
    "MEAN_MOTION_DOT": 6.9e-07,
    "MEAN_MOTION_DDOT": 0
  }
]