RESOURCESAT-2           
1 37387U 11015A   25165.82982141  .00000112  00000+0  71250-4 0  9992
2 37387  98.8083 229.9449 0005777 184.5331 175.5794 14.21574371734519
HAIYANG-2A              
1 37781U 11043A   25165.87526114 -.00000005  00000+0  38018-4 0  9997
2 37781  99.3319 169.5844 0001092 134.4889 225.6352 13.78817398696313
RASAT                   
1 37791U 11044D   25165.83999317  .00000519  00000+0  99821-4 0  9992
2 37791  98.0682 257.7910 0019382 276.9809 185.3526 14.67595103739311
SRMSAT                  
1 37841U 11058D   25165.56409251  .00000409  00000+0  78604-4 0  9990
2 37841  19.9707 124.3840 0011969 119.4776  37.3149 14.11437854705817
PLEIADES 1A             
1 38012U 11076F   25165.77299208  .00000351  00000+0  85395-4 0  9994
2 38012  98.1982 241.1354 0001321 108.4095 358.4676 14.58556703718444
ZIYUAN 1-02C (ZY 1-02C) 
1 38038U 11079A   25165.76552681  .00000428  00000+0  15658-3 0  9990
2 38038  98.4531 234.9096 0005763 336.9652 130.8368 14.37775142706454
ZIYUAN 3-1 (ZY 3-1)     
1 38046U 12001A   25165.75464987  .00017329  00000+0  27911-3 0  9998
2 38046  97.1975 230.3812 0001388 246.8073 113.3034 15.53013740746832
ARIRANG-3 (KOMPSAT-3)   
1 38338U 12025B   25165.86850175  .00000443  00000+0  99284-4 0  9990
2 38338  98.3065 119.4490 0006185 157.6624 202.4847 14.61427914697779
EXACTVIEW-1 (ADS-1B)    
1 38709U 12039C   25165.57091886  .00000143  00000+0  80887-4 0  9997
2 38709  98.9536 270.3014 0011551 146.7400 213.4506 14.24819267670357
SPOT 6                  
1 38755U 12047A   25165.83754688  .00000359  00000+0  86999-4 0  9991
2 38755  98.1772 233.7012 0001285 107.7850 252.3489 14.58563800679539
PLEIADES 1B             
1 39019U 12068A   25165.85522994  .00000366  00000+0  88486-4 0  9994
2 39019  98.1954 241.1612 0001390  99.7292 260.4065 14.58550189667309
GOKTURK 2               
1 39030U 12073A   25165.87607302  .00000475  00000+0  77686-4 0  9993
2 39030  97.7099  16.2544 0002162  89.2130 270.9327 14.75009553670387
LANDSAT 8               
1 39084U 13008A   25165.84906870  .00000361  00000+0  90182-4 0  9990
2 39084  98.2255 236.3612 0001453  92.7780 267.3584 14.57098056656227
SARAL                   
1 39086U 13009A   25165.56890012  .00000069  00000+0  41381-4 0  9994
2 39086  98.5532 351.8466 0000938 327.3418  32.7707 14.32684001642963
